STARLINK-2291           
1 47862U 21021C   26068.73228072  .00000154  00000+0  17320-4 0  9992
2 47862  53.1588 255.0616 0000991 118.3853 241.7248 15.30185290276436
SKYKRAFT-1A             
1 55054U 23001AX  26068.71064616  .00008177  00000+0  30069-3 0  9991
2 55054  97.3349 127.6290 0011277 121.5092 238.7251 15.28083228176529
