[{"OBJECT_NAME":"STARLINK-2291","OBJECT_ID":"2021-021C","EPOCH":"2026-03-09T17:34:29.054208","MEAN_MOTION":15.3018529,"ECCENTRICITY":9.91e-5,"INCLINATION":53.1588,"RA_OF_ASC_NODE":255.0616,"ARG_OF_PERICENTER":118.3853,"MEAN_ANOMALY":241.7248,"EPHEMERIS_TYPE":0,"CLASSIFICATION_TYPE":"U","NORAD_CAT_ID":47862,"ELEMENT_SET_NO":999,"REV_AT_EPOCH":27643,"BSTAR":1.7319636e-5,"MEAN_MOTION_DOT":1.54e-6,"MEAN_MOTION_DDOT":0},{"OBJECT_NAME":"SKYKRAFT-1A","OBJECT_ID":"2023-001AX","EPOCH":"2026-03-09T17:03:19.828224","MEAN_MOTION":15.28083228,"ECCENTRICITY":0.00112767,"INCLINATION":97.3349,"RA_OF_ASC_NODE":127.629,"ARG_OF_PERICENTER":121.5092,"MEAN_ANOMALY":238.7251,"EPHEMERIS_TYPE":0,"CLASSIFICATION_TYPE":"U","NORAD_CAT_ID":55054,"ELEMENT_SET_NO":999,"REV_AT_EPOCH":17652,"BSTAR":0.0003006872,"MEAN_MOTION_DOT":8.177e-5,"MEAN_MOTION_DDOT":0}]
